ELEKTRO-L 3             
1 44903U 19095A   26180.03318012 -.00000085  00000+0  00000+0 0  9991
2 44903   0.2867  82.0022 0001546   4.7933 278.2461  1.00272473 23822
SHIJIAN-20 (SJ-20)      
1 44910U 19097A   26178.98184911  .00000142  00000+0  00000+0 0  9994
2 44910   4.9451  74.9367 0015561  55.3176 184.0657  1.00274043 23809
TJS-5                   
1 44978U 20002A   26179.21711332 -.00000330  00000+0  00000+0 0  9996
2 44978   0.0213  39.1662 0007970  12.5701  50.2337  1.00270048 23823
GSAT-30                 
1 45026U 20005A   26179.46711172  .00000000  00000+0  00000+0 0  9996
2 45026   0.0230  38.7919 0003738  47.6185  81.3444  1.00270524 23621
EUTELSAT KONNECT        
1 45027U 20005B   26179.52057975  .00000061  00000+0  00000+0 0  9995
2 45027   0.0716  94.0621 0001961 125.1530 252.0127  1.00270432 24453
JCSAT-17                
1 45245U 20013A   26179.38100556 -.00000303  00000+0  00000+0 0  9994
2 45245   5.3917 356.9767 0003161 103.8507  88.8298  1.00272186 23347
GEO-KOMPSAT-2B          
1 45246U 20013B   26179.97224562 -.00000332  00000+0  00000+0 0  9996
2 45246   0.0428 218.0670 0000129 250.6563 286.6067  1.00271791 23390
BEIDOU-3 G2             
1 45344U 20017A   26179.96271225 -.00000132  00000+0  00000+0 0  9994
2 45344   2.8876  47.5261 0002589  41.4136 254.7826  1.00271992 23371
AEHF-6 (USA 298)        
1 45465U 20022B   26179.97423896 -.00000285  00000+0  00000+0 0  9997
2 45465   2.5231 301.3058 0042465  17.2195  86.9529  1.00267668 23139
BEIDOU-3 G3             
1 45807U 20040A   26179.96877894 -.00000345  00000+0  00000+0 0  9994
2 45807   2.4758  67.4764 0002577 331.0925 337.8035  1.00273629 22182
APSTAR-6D               
1 45863U 20045A   26180.00312385 -.00000306  00000+0  00000+0 0  9994
2 45863   0.0514  96.7008 0002255 356.8281 318.7094  1.00270788 21979
KOREASAT 116            
1 45920U 20048A   26179.96990561 -.00000351  00000+0  00000+0 0  9992
2 45920   0.0161  15.2329 0001268  98.3457 268.8628  1.00270668 21750
EXPRESS 103             
1 45985U 20053A   26178.69004587 -.00000269  00000+0  00000+0 0  9990
2 45985   0.0194 278.9362 0000544  49.3417 292.4363  1.00271621 21759
EXPRESS 80              
1 45986U 20053B   26179.01083078  .00000000  00000+0  00000+0 0  9992
2 45986   0.0199 342.2898 0001836 227.2878 150.4120  1.00269823 21741
BSAT-4B                 
1 46112U 20056A   26179.96860560 -.00000338  00000+0  00000+0 0  9995
2 46112   0.0483 173.6857 0004551 306.7550 255.1342  1.00270025 21506
MEV-2                   
1 46113U 20056B   26179.37631979  .00000002  00000+0  00000+0 0  9998
2 46113   0.0291 284.0988 0000745 227.6296 259.2227  1.00279320 80560
GALAXY 30 (G-30)        
1 46114U 20056C   26179.70828025  .00000048  00000+0  00000+0 0  9996
2 46114   0.0188  23.4960 0002283  71.7515 311.5176  1.00272339 21408
GAOFEN-13 01            
1 46610U 20071A   26180.04489285 -.00000352  00000+0  00000+0 0  9993
2 46610   0.4277  86.4359 0044579 119.5581 205.5440  1.00275709 21030
TIANTONG-1 2            
1 46916U 20082A   26179.97163895 -.00000343  00000+0  00000+0 0  9990
2 46916   0.7758 329.2208 0001740 121.9485 300.6232  1.00271396 20774
LUCAS (JDRS-1)          
1 47202U 20089A   26179.96487892 -.00000224  00000+0  00000+0 0  9999
2 47202   0.0302 288.9727 0002452 153.8610 272.3686  1.00271018 20536
SXM-7                   
1 47240U 20096A   26179.85873934 -.00000194  00000+0  00000+0 0  9999
2 47240   0.0271  96.2711 0003923  21.2424  23.4221  1.00271352  7560
CMS-01                  
1 47256U 20099A   26179.77353619 -.00000153  00000+0  00000+0 0  9998
2 47256   0.0385  93.1163 0002989 183.5621   1.6561  1.00272236 20317
TURKSAT 5A              
1 47306U 21001A   26179.96923178  .00000165  00000+0  00000+0 0  9994
2 47306   0.0134  52.4712 0000272  24.9085 219.5301  1.00271287 20089
TIANTONG-1 3            
1 47321U 21003A   26179.96297225 -.00000142  00000+0  00000+0 0  9996
2 47321   1.7471 340.0625 0003411 120.6251 244.5541  1.00273790 20078
TJS-6                   
1 47613U 21010A   26179.91091102  .00000055  00000+0  00000+0 0  9991
2 47613   0.2208 263.2913 0003492 223.2056 296.9224  1.00273804 19929
SBIRS GEO-5 (USA 315)   
1 48618U 21042A   26179.96539892 -.00000253  00000+0  00000+0 0  9991
2 48618   5.0886 329.2124 0001889 132.2220 256.9747  1.00271880 18890
FENGYUN 4B              
1 48808U 21047A   26179.96765227 -.00000319  00000+0  00000+0 0  9993
2 48808   0.1814  78.8021 0005831 279.0400  12.3088  1.00271908 18682
SXM-8                   
1 48838U 21049A   26179.14584655 -.00000194  00000+0  00000+0 0  9993
2 48838   0.0161  15.2313 0005768  18.9379 209.4357  1.00275737 18695
TIANLIAN 1-05           
1 49011U 21063A   26179.95018561  .00000118  00000+0  00000+0 0  9995
2 49011   1.6232  80.6181 0000875  22.7594 172.5580  1.00273912 18196
STAR ONE D2             
1 49055U 21069A   26179.79025792  .00000000  00000+0  00000+0 0  9995
2 49055   0.0151 352.8936 0002001 128.5996   9.7921  1.00269256 18065
EUTELSAT QUANTUM        
1 49056U 21069B   26179.95629888  .00000137  00000+0  00000+0 0  9991
2 49056   0.0110 355.5418 0002694 101.5503 211.9098  1.00271250 18046
ZHONGXING-2E            
1 49062U 21071A   26179.96626559 -.00000280  00000+0  00000+0 0  9994
2 49062   0.0407 133.8241 0002294   4.5198 224.6293  1.00269841 18154
