OBJECT_NAME,OBJECT_ID,EPOCH,MEAN_MOTION,ECCENTRICITY,INCLINATION,RA_OF_ASC_NODE,ARG_OF_PERICENTER,MEAN_ANOMALY,EPHEMERIS_TYPE,CLASSIFICATION_TYPE,NORAD_CAT_ID,ELEMENT_SET_NO,REV_AT_EPOCH,BSTAR,MEAN_MOTION_DOT,MEAN_MOTION_DDOT
ELEKTRO-L 3,2019-095A,2026-06-29T00:47:46.762368,1.00272473,.0001546,0.2867,82.0022,4.7933,278.2461,0,U,44903,999,2382,0,-.85E-6,0
SHIJIAN-20 (SJ-20),2019-097A,2026-06-27T23:33:51.763104,1.00274043,.0015561,4.9451,74.9367,55.3176,184.0657,0,U,44910,999,2380,0,.142E-5,0
TJS-5,2020-002A,2026-06-28T05:12:38.590848,1.00270048,.000797,0.0213,39.1662,12.5701,50.2337,0,U,44978,999,2382,0,-.33E-5,0
GSAT-30,2020-005A,2026-06-28T11:12:38.452608,1.00270524,.00037383,0.0230,38.7919,47.6185,81.3444,0,U,45026,999,2362,0,0,0
EUTELSAT KONNECT,2020-005B,2026-06-28T12:29:38.090400,1.00270432,.00019616,0.0716,94.0621,125.1530,252.0127,0,U,45027,999,2445,0,.61E-6,0
JCSAT-17,2020-013A,2026-06-28T09:08:38.880384,1.00272186,.00031617,5.3917,356.9767,103.8507,88.8298,0,U,45245,999,2334,0,-.303E-5,0
GEO-KOMPSAT-2B,2020-013B,2026-06-28T23:20:02.021568,1.00271791,.00001292,0.0428,218.0670,250.6563,286.6067,0,U,45246,999,2339,0,-.332E-5,0
BEIDOU-3 G2,2020-017A,2026-06-28T23:06:18.338400,1.00271992,.00025891,2.8876,47.5261,41.4136,254.7826,0,U,45344,999,2337,0,-.132E-5,0
AEHF-6 (USA 298),2020-022B,2026-06-28T23:22:54.246144,1.00267668,.00424654,2.5231,301.3058,17.2195,86.9529,0,U,45465,999,2313,0,-.285E-5,0
BEIDOU-3 G3,2020-040A,2026-06-28T23:15:02.500416,1.00273629,.00025778,2.4758,67.4764,331.0925,337.8035,0,U,45807,999,2218,0,-.345E-5,0
APSTAR-6D,2020-045A,2026-06-29T00:04:29.900640,1.00270788,.00022559,0.0514,96.7008,356.8281,318.7094,0,U,45863,999,2197,0,-.306E-5,0
KOREASAT 116,2020-048A,2026-06-28T23:16:39.844704,1.00270668,.00012683,0.0161,15.2329,98.3457,268.8628,0,U,45920,999,2175,0,-.351E-5,0
EXPRESS 103,2020-053A,2026-06-27T16:33:39.963168,1.00271621,.00005444,0.0194,278.9362,49.3417,292.4363,0,U,45985,999,2175,0,-.269E-5,0
EXPRESS 80,2020-053B,2026-06-28T00:15:35.779392,1.00269823,.0001836,0.0199,342.2898,227.2878,150.4120,0,U,45986,999,2174,0,0,0
BSAT-4B,2020-056A,2026-06-28T23:14:47.523840,1.00270025,.00045517,0.0483,173.6857,306.7550,255.1342,0,U,46112,999,2150,0,-.338E-5,0
MEV-2,2020-056B,2026-06-28T09:01:54.029856,1.00279320,.0000745,0.0291,284.0988,227.6296,259.2227,0,U,46113,999,8056,0,.2E-7,0
GALAXY 30 (G-30),2020-056C,2026-06-28T16:59:55.413600,1.00272339,.00022835,0.0188,23.4960,71.7515,311.5176,0,U,46114,999,2140,0,.48E-6,0
GAOFEN-13 01,2020-071A,2026-06-29T01:04:38.742240,1.00275709,.0044579,0.4277,86.4359,119.5581,205.5440,0,U,46610,999,2103,0,-.352E-5,0
TIANTONG-1 2,2020-082A,2026-06-28T23:19:09.605280,1.00271396,.00017409,0.7758,329.2208,121.9485,300.6232,0,U,46916,999,2077,0,-.343E-5,0
LUCAS (JDRS-1),2020-089A,2026-06-28T23:09:25.538688,1.00271018,.00024524,0.0302,288.9727,153.8610,272.3686,0,U,47202,999,2053,0,-.224E-5,0
SXM-7,2020-096A,2026-06-28T20:36:35.078976,1.00271352,.00039235,0.0271,96.2711,21.2424,23.4221,0,U,47240,999,756,0,-.194E-5,0
CMS-01,2020-099A,2026-06-28T18:33:53.526816,1.00272236,.00029898,0.0385,93.1163,183.5621,1.6561,0,U,47256,999,2031,0,-.153E-5,0
TURKSAT 5A,2021-001A,2026-06-28T23:15:41.625792,1.00271287,.00002727,0.0134,52.4712,24.9085,219.5301,0,U,47306,999,2008,0,.165E-5,0
TIANTONG-1 3,2021-003A,2026-06-28T23:06:40.802400,1.00273790,.00034111,1.7471,340.0625,120.6251,244.5541,0,U,47321,999,2007,0,-.142E-5,0
TJS-6,2021-010A,2026-06-28T21:51:42.712128,1.00273804,.0003492,0.2208,263.2913,223.2056,296.9224,0,U,47613,999,1992,0,.55E-6,0
SBIRS GEO-5 (USA 315),2021-042A,2026-06-28T23:10:10.466688,1.00271880,.00018898,5.0886,329.2124,132.2220,256.9747,0,U,48618,999,1889,0,-.253E-5,0
FENGYUN 4B,2021-047A,2026-06-28T23:13:25.156128,1.00271908,.00058312,0.1814,78.8021,279.0400,12.3088,0,U,48808,999,1868,0,-.319E-5,0
SXM-8,2021-049A,2026-06-28T03:30:01.141920,1.00275737,.00057689,0.0161,15.2313,18.9379,209.4357,0,U,48838,999,1869,0,-.194E-5,0
TIANLIAN 1-05,2021-063A,2026-06-28T22:48:16.036704,1.00273912,.0000875,1.6232,80.6181,22.7594,172.5580,0,U,49011,999,1819,0,.118E-5,0
STAR ONE D2,2021-069A,2026-06-28T18:57:58.284288,1.00269256,.00020014,0.0151,352.8936,128.5996,9.7921,0,U,49055,999,1806,0,0,0
EUTELSAT QUANTUM,2021-069B,2026-06-28T22:57:04.223232,1.00271250,.00026946,0.0110,355.5418,101.5503,211.9098,0,U,49056,999,1804,0,.137E-5,0
ZHONGXING-2E,2021-071A,2026-06-28T23:11:25.346976,1.00269841,.0002294,0.0407,133.8241,4.5198,224.6293,0,U,49062,999,1815,0,-.28E-5,0
